satname,norad_id,inclination_deg,eccentricity,mean_motion_rev_per_day,perigee_km,apogee_km,l1,l2
STARLINK-1296,45412,53.1583,0.0003285,15.34694404,459.58142074464286,464.07527797917373,1 45412U 20019BE  26118.59023506  .00057237  00000+0  16764-2 0  9995,2 45412  53.1583 256.7023 0003285 290.9770  69.0881 15.34694404337623
STARLINK-1309,45414,53.0621,0.0005398,15.64518918,370.97755908693034,378.2678384577257,1 45414U 20019BG  26118.60751143  .00091336  00000+0  92521-3 0  9998,2 45414  53.0621 240.6377 0005398 268.3132  91.7264 15.64518918337826
STARLINK-1316,45415,53.1571,0.0003771,15.35000417,458.34024795772893,463.4982641860579,1 45415U 20019BH  26118.76249035  .00060323  00000+0  17483-2 0  9993,2 45415  53.1571 255.9135 0003771 296.0717  63.9897 15.35000417337677
STARLINK-1286,45417,53.0474,0.0002315,15.54986293,400.6228279467914,403.7621204933548,1 45417U 20019BK  26118.67736084  .00057612  00000+0  84538-3 0  9993,2 45417  53.0474 249.7968 0002315 247.2489 112.8276 15.54986293337998
STARLINK-1308,45419,53.0492,0.0005745,15.59777483,384.41321674837036,392.1878534762145,1 45419U 20019BM  26118.67692033  .00107660  00000+0  13069-2 0  9999,2 45419  53.0492 270.3464 0005745 250.0826 109.9567 15.59777483337453
STARLINK-1329,45531,53.0437,0.0004066,15.68504299,360.4381959627235,365.92023430887184,1 45531U 20025A   26118.92402758  .00055757  00000+0  48526-3 0  9998,2 45531  53.0437 195.0747 0004066  11.0450 349.0655 15.68504299333316
STARLINK-1338,45532,53.0466,0.0002995,15.63863848,374.4852778281138,378.53131035927527,1 45532U 20025B   26118.95407743  .00108235  00000+0  11222-2 0  9993,2 45532  53.0466 200.1548 0002995 349.6131  10.4821 15.63863848333240
STARLINK-1350,45535,53.0706,8.72e-05,15.37321934,453.43662976012365,454.6281601026003,1 45535U 20025E   26118.34756654  .00008510  00000+0  23951-3 0  9995,2 45535  53.0706 159.7019 0000872  56.3847 303.7239 15.37321934333797
STARLINK-1362,45538,53.1587,0.0002223,15.33979517,462.43229309576236,465.47428643859257,1 45538U 20025H   26119.00002315  .00014095  00000+0  43319-3 0  9995,2 45538  53.1587 226.8176 0002223  46.9185 129.9286 15.33979517  5877
STARLINK-1368,45540,53.1581,0.0002294,15.33891972,462.64398798998536,465.783258455921,1 45540U 20025K   26118.59083888  .00055133  00000+0  16573-2 0  9994,2 45540  53.1581 229.1015 0002294   8.3456 351.7584 15.33891972332814
STARLINK-1371,45542,53.0466,0.000542,15.55637789,396.6253764402172,403.9732013773955,1 45542U 20025M   26119.00002315  .00106837  00000+0  15147-2 0  9993,2 45542  53.0466 207.5205 0005420 340.6626  29.6608 15.55637789  5984
STARLINK-1372,45543,53.16,0.0002388,15.34266642,461.46594968800036,464.73332430583014,1 45543U 20025N   26118.62783698  .00053365  00000+0  15860-2 0  9990,2 45543  53.1600 228.5720 0002388 357.7786   2.3206 15.34266642331928
STARLINK-1373,45544,53.0465,0.0002948,15.59699657,386.5308092077976,390.52043348934603,1 45544U 20025P   26118.94598086  .00038551  00000+0  47768-3 0  9994,2 45544  53.0465 205.8588 0002948 328.5481  31.5354 15.59699657333166
STARLINK-1327,45555,53.0428,0.0004574,15.62375905,377.704643169026,383.88771524136246,1 45555U 20025AA  26118.35718220  .00099878  00000+0  10989-2 0  9998,2 45555  53.0428 185.2817 0004574 310.4004  49.6609 15.62375905333390
STARLINK-1356,45564,53.0478,0.0003208,15.52532497,407.15743333286446,411.5122752745856,1 45564U 20025AK  26118.93541496  .00081283  00000+0  12967-2 0  9990,2 45564  53.0478 193.1941 0003208 317.0211  43.0547 15.52532497333330
STARLINK-1357,45565,53.045,0.0007724,15.65205799,367.43264383926635,377.8612548842402,1 45565U 20025AL  26118.59273095  .00046077  00000+0  45908-3 0  9994,2 45565  53.0450 154.6037 0007724 356.9604   3.1363 15.65205799333850
STARLINK-1361,45567,53.0462,0.000145,15.55897054,398.5634929694261,400.52902111396816,1 45567U 20025AN  26118.92147884  .00087640  00000+0  12355-2 0  9999,2 45567  53.0462 192.1745 0001450 300.7383  59.3484 15.55897054333351
STARLINK-1363,45568,53.0335,0.0003576,15.92837551,291.9605592829994,296.73271958192163,1 45568U 20025AP  26119.00002315  .00256329  36014-4  73089-3 0  9992,2 45568  53.0335 143.7059 0003576  35.2879  61.6050 15.92837551  5811
STARLINK-1366,45569,53.0349,0.0003519,15.89506154,301.3151611369767,306.01781443167965,1 45569U 20025AQ  26119.00002315  .00218627  00000+0  71496-3 0  9993,2 45569  53.0349 145.1347 0003519  14.9434  41.2571 15.89506154  6070
STARLINK-1376,45570,53.1588,0.0004397,15.34776492,458.577029875215,464.5918809230943,1 45570U 20025AR  26118.93942661  .00053019  00000+0  15503-2 0  9991,2 45570  53.1588 203.6175 0004397 349.1786  10.9122 15.34776492333202
STARLINK-1320,45572,53.0451,0.0002901,15.77363729,335.96499076775126,339.86164316165286,1 45572U 20025AT  26118.93545477  .00084420  00000+0  50028-3 0  9999,2 45572  53.0451  96.1734 0002901 139.2273 220.8964 15.77363729334711
STARLINK-1321,45573,53.0444,0.0005081,15.57043314,392.7774137144406,399.66151475339575,1 45573U 20025AU  26118.44595259  .00090984  00000+0  12280-2 0  9998,2 45573  53.0444 178.7102 0005081 346.7536  13.3341 15.57043314333197
STARLINK-1331,45578,53.0489,0.0006657,15.56679279,392.76516920867925,401.785953492863,1 45578U 20025AZ  26118.97435054  .00088480  00000+0  12106-2 0  9992,2 45578  53.0489 182.9299 0006657 328.9544  31.1072 15.56679279333492
STARLINK-1333,45580,53.1583,0.0002069,15.31824094,468.95314632242207,471.78705856141187,1 45580U 20025BB  26118.51796817  .00050493  00000+0  16216-2 0  9991,2 45580  53.1583 206.2451 0002069  23.3358 336.7737 15.31824094333136
STARLINK-1335,45581,53.1561,0.0003113,15.3341001,463.51681203316,467.7777521271828,1 45581U 20025BC  26118.52331884  .00050677  00000+0  15484-2 0  9992,2 45581  53.1561 203.3982 0003113   2.7000 357.4019 15.33410010333163
STARLINK-1337,45582,53.0483,0.0007304,15.68235186,359.0259900211504,368.87483131065073,1 45582U 20025BD  26119.00002315  .00173968  00000+0  14973-2 0  9992,2 45582  53.0483 175.5735 0007304 338.9196 353.7207 15.68235186  6014
STARLINK-1347,45586,53.0386,0.0004987,15.64365038,371.6976964370242,378.43334062900885,1 45586U 20025BH  26118.35392377  .00104040  00000+0  10580-2 0  9998,2 45586  53.0386 147.7745 0004987  10.1059 350.0055 15.64365038333912
STARLINK-1364,45589,53.0454,0.0004879,15.58207499,389.54126112029644,396.1483851833282,1 45589U 20025BL  26118.46615930  .00092159  00000+0  11906-2 0  9996,2 45589  53.0454 182.9038 0004879 304.6684  55.3867 15.58207499333434
STARLINK-1365,45590,53.0482,0.0004151,15.53140624,404.74625337462476,410.3797415125018,1 45590U 20025BM  26118.53395576  .00082505  00000+0  12872-2 0  9994,2 45590  53.0482 214.6232 0004151 304.7812  55.2806 15.53140624333010
STARLINK-1443,45660,53.1341,0.0003133,15.29494345,475.17502250933467,479.47065364387345,1 45660U 20035D   26118.90357975  .00045303  00000+0  15659-2 0  9996,2 45660  53.1341 192.5403 0003133 336.4292  23.6564 15.29494345326433
STARLINK-1446,45663,53.0222,0.0004499,15.45234709,427.62522289569097,433.75180409273344,1 45663U 20035G   26118.71767138  .00033565  00000+0  70069-3 0  9998,2 45663  53.0222 121.3324 0004499  60.7919 299.3536 15.45234709327407
STARLINK-1448,45665,53.045,0.0006676,15.63123214,374.1309429631874,383.15259397484715,1 45665U 20035J   26119.00002315  .00165254  00000+0  17473-2 0  9992,2 45665  53.0450 168.4742 0006676 329.6198 312.1927 15.63123214  5952
STARLINK-1451,45668,53.0514,0.000138,15.12543267,527.4939760308125,529.4001932381716,1 45668U 20035M   26118.93836165  .00025755  00000+0  14723-2 0  9990,2 45668  53.0514 198.7394 0001380  15.6892 344.4142 15.12543267326349
STARLINK-1452,45669,53.0275,0.0001578,15.52200116,409.2325624590194,411.3749943686871,1 45669U 20035N   26118.36866269  .00080775  00000+0  13043-2 0  9993,2 45669  53.0275 143.6801 0001578 344.2063  15.8896 15.52200116327068
STARLINK-1453,45670,53.0403,0.0003376,15.63731102,374.61006177010313,379.17105637798977,1 45670U 20035P   26119.00002315  .00159812  00000+0  16523-2 0  9996,2 45670  53.0403 128.8980 0003376  51.4732 354.3497 15.63731102  6006
STARLINK-1454,45671,53.0452,0.0005195,15.60521676,382.63509860033264,389.66319190525064,1 45671U 20035Q   26118.84444212  .00070670  00000+0  83990-3 0  9991,2 45671  53.0452 169.9386 0005195 307.4336  52.6203 15.60521676326729
STARLINK-1456,45673,53.0449,0.0007667,15.58837592,385.8302021442305,396.210027664225,1 45673U 20035S   26118.83477736  .00095144  00000+0  11989-2 0  9990,2 45673  53.0449 164.1012 0007667   4.1688 355.9386 15.58837592326823
STARLINK-1457,45674,53.0365,0.0004409,15.98480528,275.69888878780876,281.56882933132783,1 45674U 20035T   26119.00002315  .00350592  62002-4  73316-3 0  9997,2 45674  53.0365 127.1923 0004409  26.6840 125.1484 15.98480528  6032
STARLINK-1458,45675,53.0491,0.0006064,15.50462422,411.25538110494927,419.4945524182376,1 45675U 20035U   26118.88685435  .00082773  00000+0  14206-2 0  9993,2 45675  53.0491 175.8459 0006064 324.7574  35.3033 15.50462422326625
STARLINK-1460,45676,53.1578,0.0002539,15.31727939,468.9178030629955,472.3956205098402,1 45676U 20035V   26118.48964620  .00048325  00000+0  15575-2 0  9991,2 45676  53.1578 193.5231 0002539  25.3690 334.7436 15.31727939326342
STARLINK-1392,45677,53.1545,0.0002065,15.34690624,460.42712558581934,463.2520359136697,1 45677U 20035W   26118.59011894  .00049356  00000+0  14488-2 0  9997,2 45677  53.1545 192.6042 0002065  30.2579 329.8543 15.34690624326406
STARLINK-1394,45679,53.0434,0.0008623,15.58789532,385.32208606711447,396.9964143802508,1 45679U 20035Y   26118.83218858  .00104628  00000+0  13181-2 0  9998,2 45679  53.0434 154.3381 0008623  10.0678 350.0505 15.58789532326954
STARLINK-1402,45685,53.043,0.0008181,15.52519119,403.8209832211978,414.9267084671683,1 45685U 20035AE  26118.46991209  .00074749  00000+0  11934-2 0  9996,2 45685  53.0430 144.9162 0008181  29.2896 330.8570 15.52519119327069
